ONEWEB-0205             
1 48226U 21031S   24130.88095790 -.00000017  00000+0 -80071-4 0  9994
2 48226  87.8948  82.5671 0002216  78.7488 281.3891 13.14503966147338
ONEWEB-0206             
1 48227U 21031T   24130.93011994  .00000247  00000+0  63118-3 0  9990
2 48227  87.8944  82.5478 0002121  75.8733 284.2633 13.14504383147291
ONEWEB-0182             
1 48228U 21031U   24130.92536679  .00000259  00000+0  66322-3 0  9995
2 48228  87.8948  82.5744 0001875  77.6624 282.4715 13.14503581147500
ONEWEB-0186             
1 48229U 21031V   24130.86034434  .00000247  00000+0  63257-3 0  9992
2 48229  87.8947  82.5514 0002097  83.7408 276.3960 13.14504482147448
ONEWEB-0181             
1 48230U 21031W   24130.91426858  .00000074  00000+0  16400-3 0  9991
2 48230  87.8946  82.6101 0002169  85.0554 275.0823 13.14504223147301
ONEWEB-0188             
1 48231U 21031X   24130.87619769  .00000014  00000+0  31739-5 0  9990
2 48231  87.8948  82.6137 0002033  80.2472 279.8887 13.14504532147203
ONEWEB-0220             
1 48232U 21031Y   24130.91585784  .00000116  00000+0  27801-3 0  9991
2 48232  87.8940  82.5727 0002287  75.3233 284.8150 13.14503958147470
ONEWEB-0165             
1 48233U 21031Z   24130.94438761  .00000237  00000+0  60560-3 0  9990
2 48233  87.8950  82.5811 0002212  82.2263 277.9118 13.14500655147438
